STARLINK-31594          
1 59332U 24057N   26068.39651260 -.00006890  00000+0 -24084-3 0  9999
2 59332  43.0042 200.0261 0003285 297.6612  62.3906 15.27601530109667
YAOGAN-43 01G           
1 60464U 24148G   26068.44348481  .00010133  00000+0  35873-3 0  9993
2 60464  35.0006  62.0013 0007382 306.3543  53.6492 15.28332833 87004
